IRIDIUM 144             
1 43249U 18030A   24124.59073382  .00000373  00000+0  12609-3 0  9997
2 43249  86.3961 254.0924 0002027  94.7229 265.4198 14.34218653319114
IRIDIUM 149             
1 43250U 18030B   24124.59708022  .00000441  00000+0  15043-3 0  9996
2 43250  86.3959 254.0653 0002062  97.2512 262.8918 14.34217461319133
IRIDIUM 157             
1 43251U 18030C   24124.82541219  .00000415  00000+0  14104-3 0  9994
2 43251  86.3960 254.0057 0002429  99.0864 261.0607 14.34217922319140
IRIDIUM 140             
1 43252U 18030D   24124.63513254 -.00000121  00000+0 -50312-4 0  9990
2 43252  86.3959 254.1001 0001772  91.0908 269.0491 14.34216341319176
IRIDIUM 145             
1 43253U 18030E   24124.83175225  .00000402  00000+0  13644-3 0  9991
2 43253  86.3960 253.9914 0001782 100.4458 259.6939 14.34218593319134
IRIDIUM 146             
1 43254U 18030F   24124.46388039  .00000404  00000+0  13716-3 0  9992
2 43254  86.3961 254.1603 0001916  96.2412 263.9002 14.34215669319090
IRIDIUM 148             
1 43255U 18030G   24124.85078175  .00000383  00000+0  12957-3 0  9995
2 43255  86.3960 254.0297 0002155 102.3132 257.8305 14.34217107319190
IRIDIUM 142             
1 43256U 18030H   24124.81906797  .00000309  00000+0  10337-3 0  9990
2 43256  86.3958 253.9602 0001973 100.6029 259.5389 14.34218188319145
